162P/Siding Spring,e,27.5582,30.9394,357.1052,3.091322,0.1813376,0.58303026,310.7139,03/11.0/2020,2000,g  9.0,4.0
# From MPC102101
163P/NEAT,e,12.7079,102.0916,349.6833,3.770462,0.1346208,0.45191864,29.4557,03/11.0/2020,2000,g 14.5,4.0
# From MPC106349
164P/Christensen,e,16.2533,88.3056,325.8724,3.658739,0.1408338,0.53962700,91.5008,03/11.0/2020,2000,g 11.0,4.0
# From MPC 75721
165P/LINEAR,e,15.9001,0.7310,126.2642,17.90702,0.0130068,0.61485758,94.0873,03/11.0/2020,2000,g 11.5,2.0
# From MPC 75722
166P/NEAT,e,15.3605,64.5113,321.4780,13.83654,0.0191497,0.38171907,124.8775,03/11.0/2020,2000,g  5.5,4.0
# From MPC 75722
167P/CINEOS,e,19.1206,295.6579,344.0879,16.18109,0.0151423,0.27312480,104.2799,03/11.0/2020,2000,g  9.5,2.0
# From MPC102101
168P/Hergenrother,e,21.6117,355.4669,14.9921,3.581912,0.1453891,0.62063885,31.8170,03/11.0/2020,2000,g 15.5,4.0
# From MPEC 2015-M77
169P/NEAT,e,11.2950,176.0864,218.0748,2.601497,0.2348925,0.76793385,160.0913,03/11.0/2020,2000,g  9.0,4.0
# From MPC 89012
170P/Christensen,e,10.1249,142.9191,225.6605,4.198132,0.1145829,0.30333241,229.7169,03/11.0/2020,2000,g 12.0,4.0
# From MPC102102
171P/Spahr,e,21.9338,101.6963,347.1256,3.556877,0.1469267,0.50173432,62.0570,03/11.0/2020,2000,g 13.5,4.0
# From MPEC 2019-VB6
172P/Yeung,e,11.2339,30.8964,209.3511,4.210030,0.1140975,0.20626174,124.7292,03/11.0/2020,2000,g 13.0,4.0
# From MPEC 2019-VB6
173P/Mueller,e,16.4972,100.4011,29.3837,5.700152,0.0724227,0.26052381,313.1224,03/11.0/2020,2000,g  7.5,4.0
# From MPC 92985
174P/Echeclus,e,4.3431,173.2725,162.8899,10.70065,0.0281572,0.45693814,50.2378,03/11.0/2020,2000,g  9.4,2.0
# From MPC114608
175P/Hergenrother,e,6.0774,123.5309,56.2121,3.427875,0.1552983,0.43218371,25.1838,03/11.0/2020,2000,g 14.0,4.0
# From MPC 89015
176P/LINEAR,e,0.2347,345.8808,35.1684,3.193174,0.1727310,0.19293654,189.2943,03/11.0/2020,2000,g 15.1,2.0
# From MPC 75723
177P/Barnard,e,31.3369,272.3575,60.1621,24.37295,0.0081911,0.95503953,40.4889,03/11.0/2020,2000,g 15.0,4.0
# From MPC105242
178P/Hug-Bell,e,11.0897,102.8747,297.7818,3.630071,0.1425054,0.48174756,341.8158,03/11.0/2020,2000,g 13.5,4.0
# From MPC 75723
179P/Jedicke,e,19.8984,115.5249,296.4463,5.944352,0.0680060,0.30604967,305.0990,03/11.0/2020,2000,g  2.5,8.0
# From MPC100284
180P/NEAT,e,16.8684,84.5561,94.9050,3.860740,0.1299266,0.35346561,201.6542,03/11.0/2020,2000,g 11.0,4.0
# From MPC 89012
181P/Shoemaker-Levy,e,17.4853,35.4114,336.2588,3.870571,0.1294319,0.70031313,273.4154,03/11.0/2020,2000,g 11.5,4.0
# From MPEC 2014-J10
182P/LONEOS,e,16.2394,72.7519,53.7943,2.956879,0.1938446,0.66126706,206.2284,03/11.0/2020,2000,g 18.0,4.0
# From MPC110085
183P/Korlevic-Juric,e,18.6780,5.4658,163.4388,4.515174,0.1027288,0.13986533,86.0287,03/11.0/2020,2000,g 12.5,2.0
# From MPC105242
184P/Lovas,e,4.5723,173.2827,186.4170,3.795477,0.1332921,0.55133363,329.4535,03/11.0/2020,2000,g 13.5,4.0
# From MPC109593
185P/Petriew,e,13.9963,214.0965,181.8902,3.099739,0.1805994,0.69883539,139.6920,03/11.0/2020,2000,g 15.0,4.0
# From MPC100284
186P/Garradd,e,28.4727,326.8678,283.9996,5.012896,0.0878155,0.12439257,27.2927,03/11.0/2020,2000,g  7.5,4.0
# From MPC104795
187P/LINEAR,e,13.6348,109.9237,132.3133,4.575257,0.1007119,0.15257907,66.6634,03/11.0/2020,2000,g  9.0,4.0
# From MPC106349
188P/LINEAR-Mueller,e,10.5180,358.9561,26.6073,4.376968,0.1076326,0.41504198,120.3580,03/11.0/2020,2000,g 11.5,4.0
# From MPC106349
189P/NEAT,e,20.0739,281.7408,16.2468,2.947404,0.1947801,0.58866384,184.5772,03/11.0/2020,2000,g 19.0,4.0
# From MPC 75724
190P/Mueller,e,2.1739,335.5692,50.2968,4.236332,0.1130366,0.52061148,162.0598,03/11.0/2020,2000,g 13.0,4.0
# From MPC 92277
191P/McNaught,e,8.8452,98.2425,283.8751,3.641728,0.1418217,0.38703487,307.0169,03/11.0/2020,2000,g 13.0,4.0
# From MPC 75724
192P/Shoemaker-Levy,e,24.5294,51.6497,312.8936,6.478872,0.0597661,0.77264007,268.1828,03/11.0/2020,2000,g 15.0,4.0
# From MPC 92277
193P/LINEAR-NEAT,e,10.6869,335.1931,8.2705,3.575094,0.1458052,0.39397407,282.3128,03/11.0/2020,2000,g 14.0,4.0
# From MPC 98566
194P/LINEAR,e,11.1659,351.6683,130.7133,3.987550,0.1237784,0.57726485,181.9462,03/11.0/2020,2000,g 16.0,4.0
# From MPC 75724
195P/Hill,e,36.3417,243.0958,249.5133,6.497093,0.0595149,0.31335855,242.9211,03/11.0/2020,2000,g  8.5,4.0
# From MPC 92985
196P/Tichy,e,19.3043,24.2137,12.3412,3.797009,0.1332115,0.42872025,231.6661,03/11.0/2020,2000,g 13.5,4.0
# From MPC 94676
197P/LINEAR,e,25.5508,66.3947,188.7298,2.867167,0.2030134,0.62996078,156.7505,03/11.0/2020,2000,g 16.5,2.0
# From NK 1596
198P/ODAS,e,1.3385,358.2494,69.2771,3.601077,0.1442299,0.44311420,65.3620,03/11.0/2020,2000,g  9.0,4.0
# From MPC 75725
199P/Shoemaker,e,24.9357,92.4002,191.5502,5.899561,0.0687820,0.50602271,274.4020,03/11.0/2020,2000,g 10.0,4.0
# From MPC118098
200P/Larsen,e,12.1048,234.8038,133.9991,4.936439,0.0898635,0.33204936,20.3415,03/11.0/2020,2000,g  9.0,4.0
# From MPC 93588
201P/LONEOS,e,5.7396,20.2197,40.9598,3.363440,0.1597822,0.63818761,289.5233,03/11.0/2020,2000,g 14.0,4.0
# From MPC103849
202P/Scotti,e,2.0251,183.7480,273.2564,3.967904,0.1246988,0.29313672,172.3981,03/11.0/2020,2000,g 13.5,4.0
# From MPEC 2019-TG9
203P/Korlevic,e,2.9733,290.3491,154.8785,4.671049,0.0976298,0.31497618,0.5809,03/11.0/2020,2000,g 14.5,2.0
# From MPC 98566
204P/LINEAR-NEAT,e,6.6360,108.8362,354.8584,3.632695,0.1423510,0.48012852,219.9539,03/11.0/2020,2000,g 14.0,4.0
# From MPC 98566
205P/Giacobini,e,15.2994,179.5987,154.1789,3.543202,0.1477781,0.56772696,260.4626,03/11.0/2020,2000,g 13.0,4.0
# From MPC 75725
206P/Barnard-Boattini,e,33.6337,202.3896,189.4258,3.488349,0.1512774,0.55146560,305.7726,03/11.0/2020,2000,g 19.0,4.0
# From MPC 75725
207P/NEAT,e,10.1489,199.8506,271.7351,3.865449,0.1296893,0.75994875,175.0497,03/11.0/2020,2000,g 16.0,4.0
# From MPC101100
208P/McMillan,e,4.4086,36.3730,310.3820,4.047802,0.1210250,0.37310632,163.1010,03/11.0/2020,2000,g 12.5,4.0
# From MPC 90771
209P/LINEAR,e,21.2581,62.7675,152.4867,2.960583,0.1934809,0.67326641,52.6670,03/11.0/2020,2000,g 17.0,2.0
# From MPC105242
210P/Christensen,e,10.2619,93.8355,345.9097,3.165970,0.1749621,0.83322875,355.1144,03/11.0/2020,2000,g 13.5,4.0
# From MPC 96868
211P/Hill,e,18.9209,117.1375,4.1260,3.549513,0.1473842,0.34217993,221.7035,03/11.0/2020,2000,g 12.5,4.0
# From MPC104795
212P/NEAT,e,22.6640,98.7036,14.4001,3.885539,0.1286848,0.58786452,164.2881,03/11.0/2020,2000,g 17.0,2.0
# From MPC114608
213P/Van Ness,e,10.3815,311.3007,5.5958,3.348395,0.1608604,0.40799771,144.4868,03/11.0/2020,2000,g 10.5,4.0
# From MPC 92986
214P/LINEAR,e,15.1876,348.2653,190.2924,3.615587,0.1433626,0.48609760,226.7722,03/11.0/2020,2000,g 13.0,4.0
# From MPC118098
215P/NEAT,e,10.5813,56.6864,262.0525,4.328379,0.1094501,0.16717976,12.4612,03/11.0/2020,2000,g 11.0,4.0
# From MPC100284
216P/LINEAR,e,9.0503,359.8228,151.3841,3.870362,0.1294424,0.44544200,178.7769,03/11.0/2020,2000,g 13.0,4.0
# From MPC108598
217P/LINEAR,e,12.8633,125.4717,246.8601,3.952222,0.1254417,0.68810628,121.4627,03/11.0/2020,2000,g 12.0,4.0
# From MPC105242
218P/LINEAR,e,2.7253,175.9780,59.7724,3.094631,0.1810468,0.62192632,322.5658,03/11.0/2020,2000,g 16.0,4.0
# From MPC100284
219P/LINEAR,e,11.5290,231.0051,107.3491,3.651399,0.1412587,0.35337395,157.3443,03/11.0/2020,2000,g 11.0,4.0
# From MPC105242
220P/McNaught,e,8.1280,150.1113,180.5646,3.115157,0.1792603,0.50178816,310.7574,03/11.0/2020,2000,g 15.0,4.0
# From MPC 93589
221P/LINEAR,e,11.4263,229.7294,40.0209,3.458237,0.1532576,0.49281500,260.8573,03/11.0/2020,2000,g 14.5,4.0
# From MPC 92277
222P/LINEAR,e,5.0944,6.8032,346.2255,2.899410,0.1996364,0.71433731,55.8853,03/11.0/2020,2000,g 20.0,4.0
# From MPEC 2019-VB6
223P/Skiff,e,27.0147,346.7794,37.8274,4.159267,0.1161927,0.41561459,47.4909,03/11.0/2020,2000,g 12.0,4.0
# From MPC 75727
224P/LINEAR-NEAT,e,13.3355,40.3920,16.8219,3.435322,0.1547936,0.40912609,215.6492,03/11.0/2020,2000,g 15.5,4.0
# From MPC 75727
225P/LINEAR,e,21.3449,14.1821,3.8722,3.651352,0.1412614,0.63748406,183.9960,03/11.0/2020,2000,g 18.0,4.0
# From MPC106349
226P/Pigott-LINEAR-Kowalski,e,44.0053,54.0059,341.0636,3.768067,0.1347492,0.52812097,173.0266,03/11.0/2020,2000,g 12.5,4.0
# From MPC102956
227P/Catalina-LINEAR,e,6.5115,49.5547,90.0614,3.572957,0.1459360,0.50476882,144.7232,03/11.0/2020,2000,g 16.5,2.0
# From MPEC 2017-X08
228P/LINEAR,e,7.9095,30.9890,115.3034,4.174466,0.1155587,0.17693671,0.0332,03/11.0/2020,2000,g 14.5,2.0
# From MPC106349
229P/Gibbs,e,26.0824,157.8962,223.9986,3.932017,0.1264099,0.37634722,129.6273,03/11.0/2020,2000,g 13.0,4.0
# From MPC110497
230P/LINEAR,e,15.5142,107.0236,313.8229,3.442292,0.1543236,0.55058182,246.3964,03/11.0/2020,2000,g 13.0,4.0
# From MPC114608
231P/LINEAR-NEAT,e,12.3341,133.0270,42.8119,4.017456,0.1223988,0.24758462,33.1056,03/11.0/2020,2000,g 14.5,2.0
# From MPC112394
232P/Hill,e,14.6306,56.0233,53.5095,4.483568,0.1038170,0.33439469,35.2600,03/11.0/2020,2000,g 11.5,4.0
# From MPC 92986
233P/La Sagra,e,11.2842,74.9268,27.0753,3.030126,0.1868586,0.41171688,321.7487,03/11.0/2020,2000,g 15.0,4.0
# From MPC110497
234P/LINEAR,e,11.5226,179.5729,357.4259,3.803678,0.1328613,0.25397834,135.0436,03/11.0/2020,2000,g 12.0,4.0
# From MPC110497
235P/LINEAR,e,8.8826,204.0317,333.5882,3.987723,0.1237703,0.31889239,89.7547,03/11.0/2020,2000,g 12.0,4.0
# From MPC107688
236P/LINEAR,e,16.3337,245.6603,119.2017,3.731695,0.1367240,0.50828788,115.0808,03/11.0/2020,2000,g 14.0,4.0
# From MPC109593
237P/LINEAR,e,14.0222,245.4186,25.1593,3.512435,0.1497241,0.43474905,186.4935,03/11.0/2020,2000,g 14.5,2.0
# From MPC107688
238P/Read,e,1.2645,51.6430,324.7270,3.163125,0.1751981,0.25233248,216.6581,03/11.0/2020,2000,g 14.5,4.0
# From MPC112394
239P/LINEAR,e,11.3045,255.9110,220.4181,4.470893,0.1042588,0.63081360,44.3989,03/11.0/2020,2000,g 17.5,2.0
# From MPC109593
240P/NEAT,e,23.5047,74.9241,352.0239,3.868936,0.1295140,0.44869166,86.1742,03/11.0/2020,2000,g 11.0,4.0
# From MPC 75729
